[{"OBJECT_NAME":"ONEWEB-0593","OBJECT_ID":"2022-166T","EPOCH":"2025-10-06T01:42:29.559744","MEAN_MOTION":13.21825473,"ECCENTRICITY":0.0001709,"INCLINATION":87.9167,"RA_OF_ASC_NODE":294.6894,"ARG_OF_PERICENTER":89.0592,"MEAN_ANOMALY":271.0737,"EPHEMERIS_TYPE":0,"CLASSIFICATION_TYPE":"U","NORAD_CAT_ID":54659,"ELEMENT_SET_NO":999,"REV_AT_EPOCH":13797,"BSTAR":0.00016036,"MEAN_MOTION_DOT":7.9e-7,"MEAN_MOTION_DDOT":0},{"OBJECT_NAME":"ONEWEB-0594","OBJECT_ID":"2022-166U","EPOCH":"2025-10-06T02:09:46.577088","MEAN_MOTION":13.21825679,"ECCENTRICITY":0.0001844,"INCLINATION":87.9175,"RA_OF_ASC_NODE":294.7027,"ARG_OF_PERICENTER":92.8274,"MEAN_ANOMALY":267.3071,"EPHEMERIS_TYPE":0,"CLASSIFICATION_TYPE":"U","NORAD_CAT_ID":54660,"ELEMENT_SET_NO":999,"REV_AT_EPOCH":13799,"BSTAR":9.4169e-5,"MEAN_MOTION_DOT":5.2e-7,"MEAN_MOTION_DDOT":0},{"OBJECT_NAME":"ONEWEB-0595","OBJECT_ID":"2022-166V","EPOCH":"2025-10-06T01:37:58.669824","MEAN_MOTION":13.21824817,"ECCENTRICITY":0.0002031,"INCLINATION":87.917,"RA_OF_ASC_NODE":294.6821,"ARG_OF_PERICENTER":95.559,"MEAN_ANOMALY":264.5775,"EPHEMERIS_TYPE":0,"CLASSIFICATION_TYPE":"U","NORAD_CAT_ID":54661,"ELEMENT_SET_NO":999,"REV_AT_EPOCH":13796,"BSTAR":0.0002578,"MEAN_MOTION_DOT":1.19e-6,"MEAN_MOTION_DDOT":0},{"OBJECT_NAME":"ONEWEB-0596","OBJECT_ID":"2022-166W","EPOCH":"2025-10-06T00:59:22.676352","MEAN_MOTION":13.2182564,"ECCENTRICITY":0.0001969,"INCLINATION":87.9173,"RA_OF_ASC_NODE":294.7029,"ARG_OF_PERICENTER":90.7554,"MEAN_ANOMALY":269.3806,"EPHEMERIS_TYPE":0,"CLASSIFICATION_TYPE":"U","NORAD_CAT_ID":54662,"ELEMENT_SET_NO":999,"REV_AT_EPOCH":13796,"BSTAR":0.00010772,"MEAN_MOTION_DOT":5.8e-7,"MEAN_MOTION_DDOT":0},{"OBJECT_NAME":"ONEWEB-0597","OBJECT_ID":"2022-166X","EPOCH":"2025-10-06T02:21:07.765056","MEAN_MOTION":13.21825616,"ECCENTRICITY":0.0001848,"INCLINATION":87.9174,"RA_OF_ASC_NODE":294.6954,"ARG_OF_PERICENTER":88.0391,"MEAN_ANOMALY":272.0955,"EPHEMERIS_TYPE":0,"CLASSIFICATION_TYPE":"U","NORAD_CAT_ID":54663,"ELEMENT_SET_NO":999,"REV_AT_EPOCH":13797,"BSTAR":-0.00010278,"MEAN_MOTION_DOT":-2.9e-7,"MEAN_MOTION_DDOT":0},{"OBJECT_NAME":"ONEWEB-0600","OBJECT_ID":"2022-166Y","EPOCH":"2025-10-06T01:56:09.131136","MEAN_MOTION":13.21824977,"ECCENTRICITY":0.0001745,"INCLINATION":87.917,"RA_OF_ASC_NODE":294.6906,"ARG_OF_PERICENTER":89.5223,"MEAN_ANOMALY":270.611,"EPHEMERIS_TYPE":0,"CLASSIFICATION_TYPE":"U","NORAD_CAT_ID":54664,"ELEMENT_SET_NO":999,"REV_AT_EPOCH":13794,"BSTAR":-3.6514e-5,"MEAN_MOTION_DOT":-2.0e-8,"MEAN_MOTION_DDOT":0},{"OBJECT_NAME":"ONEWEB-0601","OBJECT_ID":"2022-166Z","EPOCH":"2025-10-06T01:44:46.896864","MEAN_MOTION":13.21824283,"ECCENTRICITY":0.0001861,"INCLINATION":87.9177,"RA_OF_ASC_NODE":294.7098,"ARG_OF_PERICENTER":82.007,"MEAN_ANOMALY":278.1276,"EPHEMERIS_TYPE":0,"CLASSIFICATION_TYPE":"U","NORAD_CAT_ID":54665,"ELEMENT_SET_NO":999,"REV_AT_EPOCH":13813,"BSTAR":7.4738e-5,"MEAN_MOTION_DOT":4.4e-7,"MEAN_MOTION_DDOT":0},{"OBJECT_NAME":"ONEWEB-0602","OBJECT_ID":"2022-166AA","EPOCH":"2025-10-06T00:52:28.000416","MEAN_MOTION":13.22257126,"ECCENTRICITY":0.0001426,"INCLINATION":87.9183,"RA_OF_ASC_NODE":294.7192,"ARG_OF_PERICENTER":87.5552,"MEAN_ANOMALY":272.5745,"EPHEMERIS_TYPE":0,"CLASSIFICATION_TYPE":"U","NORAD_CAT_ID":54666,"ELEMENT_SET_NO":999,"REV_AT_EPOCH":13797,"BSTAR":0.021542,"MEAN_MOTION_DOT":8.976e-5,"MEAN_MOTION_DDOT":0},{"OBJECT_NAME":"ONEWEB-0603","OBJECT_ID":"2022-166AB","EPOCH":"2025-10-06T01:01:37.915680","MEAN_MOTION":13.21826416,"ECCENTRICITY":0.0001778,"INCLINATION":87.9184,"RA_OF_ASC_NODE":294.6532,"ARG_OF_PERICENTER":88.648,"MEAN_ANOMALY":271.4857,"EPHEMERIS_TYPE":0,"CLASSIFICATION_TYPE":"U","NORAD_CAT_ID":54667,"ELEMENT_SET_NO":999,"REV_AT_EPOCH":13790,"BSTAR":-8.3145e-5,"MEAN_MOTION_DOT":-2.1e-7,"MEAN_MOTION_DDOT":0},{"OBJECT_NAME":"ONEWEB-0604","OBJECT_ID":"2022-166AC","EPOCH":"2025-10-06T02:32:28.762080","MEAN_MOTION":13.2182535,"ECCENTRICITY":0.0001713,"INCLINATION":87.9177,"RA_OF_ASC_NODE":294.665,"ARG_OF_PERICENTER":87.2434,"MEAN_ANOMALY":272.8896,"EPHEMERIS_TYPE":0,"CLASSIFICATION_TYPE":"U","NORAD_CAT_ID":54668,"ELEMENT_SET_NO":999,"REV_AT_EPOCH":13787,"BSTAR":-0.00022384,"MEAN_MOTION_DOT":-7.9e-7,"MEAN_MOTION_DDOT":0},{"OBJECT_NAME":"ONEWEB-0605","OBJECT_ID":"2022-166AD","EPOCH":"2025-10-06T00:34:21.897984","MEAN_MOTION":13.21823452,"ECCENTRICITY":0.0002157,"INCLINATION":87.9172,"RA_OF_ASC_NODE":294.7108,"ARG_OF_PERICENTER":75.2516,"MEAN_ANOMALY":284.8857,"EPHEMERIS_TYPE":0,"CLASSIFICATION_TYPE":"U","NORAD_CAT_ID":54669,"ELEMENT_SET_NO":999,"REV_AT_EPOCH":13793,"BSTAR":0.00015934,"MEAN_MOTION_DOT":7.9e-7,"MEAN_MOTION_DDOT":0},{"OBJECT_NAME":"ONEWEB-0606","OBJECT_ID":"2022-166AE","EPOCH":"2025-10-06T01:06:11.007936","MEAN_MOTION":13.21826436,"ECCENTRICITY":0.0002006,"INCLINATION":87.9173,"RA_OF_ASC_NODE":294.717,"ARG_OF_PERICENTER":96.7289,"MEAN_ANOMALY":263.4073,"EPHEMERIS_TYPE":0,"CLASSIFICATION_TYPE":"U","NORAD_CAT_ID":54670,"ELEMENT_SET_NO":999,"REV_AT_EPOCH":13799,"BSTAR":-0.0001453,"MEAN_MOTION_DOT":-4.7e-7,"MEAN_MOTION_DDOT":0},{"OBJECT_NAME":"ONEWEB-0607","OBJECT_ID":"2022-166AF","EPOCH":"2025-10-06T02:07:29.177760","MEAN_MOTION":13.21826976,"ECCENTRICITY":0.0001814,"INCLINATION":87.9173,"RA_OF_ASC_NODE":294.6722,"ARG_OF_PERICENTER":87.8331,"MEAN_ANOMALY":272.301,"EPHEMERIS_TYPE":0,"CLASSIFICATION_TYPE":"U","NORAD_CAT_ID":54671,"ELEMENT_SET_NO":999,"REV_AT_EPOCH":13797,"BSTAR":-0.00012909,"MEAN_MOTION_DOT":-4.0e-7,"MEAN_MOTION_DDOT":0},{"OBJECT_NAME":"ONEWEB-0608","OBJECT_ID":"2022-166AG","EPOCH":"2025-10-06T02:16:34.436928","MEAN_MOTION":13.21825387,"ECCENTRICITY":0.000183,"INCLINATION":87.9173,"RA_OF_ASC_NODE":294.6545,"ARG_OF_PERICENTER":75.0967,"MEAN_ANOMALY":285.0369,"EPHEMERIS_TYPE":0,"CLASSIFICATION_TYPE":"U","NORAD_CAT_ID":54672,"ELEMENT_SET_NO":999,"REV_AT_EPOCH":13798,"BSTAR":0.00012663,"MEAN_MOTION_DOT":6.5e-7,"MEAN_MOTION_DDOT":0},{"OBJECT_NAME":"ONEWEB-0610","OBJECT_ID":"2022-166AH","EPOCH":"2025-10-06T01:49:19.683264","MEAN_MOTION":13.21825242,"ECCENTRICITY":0.0001907,"INCLINATION":87.9174,"RA_OF_ASC_NODE":294.6963,"ARG_OF_PERICENTER":72.5916,"MEAN_ANOMALY":287.5427,"EPHEMERIS_TYPE":0,"CLASSIFICATION_TYPE":"U","NORAD_CAT_ID":54673,"ELEMENT_SET_NO":999,"REV_AT_EPOCH":13788,"BSTAR":0.00011995,"MEAN_MOTION_DOT":6.3e-7,"MEAN_MOTION_DDOT":0},{"OBJECT_NAME":"ONEWEB-0611","OBJECT_ID":"2022-166AJ","EPOCH":"2025-10-06T01:40:14.508768","MEAN_MOTION":13.21824547,"ECCENTRICITY":0.000191,"INCLINATION":87.917,"RA_OF_ASC_NODE":294.6931,"ARG_OF_PERICENTER":98.2321,"MEAN_ANOMALY":261.903,"EPHEMERIS_TYPE":0,"CLASSIFICATION_TYPE":"U","NORAD_CAT_ID":54674,"ELEMENT_SET_NO":999,"REV_AT_EPOCH":13787,"BSTAR":2.8568e-5,"MEAN_MOTION_DOT":2.5e-7,"MEAN_MOTION_DDOT":0},{"OBJECT_NAME":"ONEWEB-0612","OBJECT_ID":"2022-166AK","EPOCH":"2025-10-06T01:58:25.398624","MEAN_MOTION":13.21825128,"ECCENTRICITY":0.0001868,"INCLINATION":87.918,"RA_OF_ASC_NODE":294.6688,"ARG_OF_PERICENTER":86.4726,"MEAN_ANOMALY":273.6621,"EPHEMERIS_TYPE":0,"CLASSIFICATION_TYPE":"U","NORAD_CAT_ID":54675,"ELEMENT_SET_NO":999,"REV_AT_EPOCH":13786,"BSTAR":6.8439e-5,"MEAN_MOTION_DOT":4.1e-7,"MEAN_MOTION_DDOT":0}]
