ONEWEB-0593             
1 54659U 22166T   25279.07117546  .00000079  00000+0  16036-3 0  9996
2 54659  87.9167 294.6894 0001709  89.0592 271.0737 13.21825473137971
ONEWEB-0594             
1 54660U 22166U   25279.09012242  .00000052  00000+0  94169-4 0  9992
2 54660  87.9175 294.7027 0001844  92.8274 267.3071 13.21825679137999
ONEWEB-0595             
1 54661U 22166V   25279.06804016  .00000119  00000+0  25780-3 0  9994
2 54661  87.9170 294.6821 0002031  95.5590 264.5775 13.21824817137966
ONEWEB-0596             
1 54662U 22166W   25279.04123468  .00000058  00000+0  10772-3 0  9995
2 54662  87.9173 294.7029 0001969  90.7554 269.3806 13.21825640137960
ONEWEB-0597             
1 54663U 22166X   25279.09800654 -.00000029  00000+0 -10278-3 0  9991
2 54663  87.9174 294.6954 0001848  88.0391 272.0955 13.21825616137973
ONEWEB-0600             
1 54664U 22166Y   25279.08066124 -.00000002  00000+0 -36514-4 0  9990
2 54664  87.9170 294.6906 0001745  89.5223 270.6110 13.21824977137946
ONEWEB-0601             
1 54665U 22166Z   25279.07276501  .00000044  00000+0  74738-4 0  9996
2 54665  87.9177 294.7098 0001861  82.0070 278.1276 13.21824283138132
ONEWEB-0602             
1 54666U 22166AA  25279.03643519  .00008976  00000+0  21542-1 0  9994
2 54666  87.9183 294.7192 0001426  87.5552 272.5745 13.22257126137974
ONEWEB-0603             
1 54667U 22166AB  25279.04279995 -.00000021  00000+0 -83145-4 0  9994
2 54667  87.9184 294.6532 0001778  88.6480 271.4857 13.21826416137903
ONEWEB-0604             
1 54668U 22166AC  25279.10588845 -.00000079  00000+0 -22384-3 0  9999
2 54668  87.9177 294.6650 0001713  87.2434 272.8896 13.21825350137870
ONEWEB-0605             
1 54669U 22166AD  25279.02386456  .00000079  00000+0  15934-3 0  9996
2 54669  87.9172 294.7108 0002157  75.2516 284.8857 13.21823452137934
ONEWEB-0606             
1 54670U 22166AE  25279.04596074 -.00000047  00000+0 -14530-3 0  9997
2 54670  87.9173 294.7170 0002006  96.7289 263.4073 13.21826436137998
ONEWEB-0607             
1 54671U 22166AF  25279.08853215 -.00000040  00000+0 -12909-3 0  9996
2 54671  87.9173 294.6722 0001814  87.8331 272.3010 13.21826976137973
ONEWEB-0608             
1 54672U 22166AG  25279.09484302  .00000065  00000+0  12663-3 0  9997
2 54672  87.9173 294.6545 0001830  75.0967 285.0369 13.21825387137983
ONEWEB-0610             
1 54673U 22166AH  25279.07592226  .00000063  00000+0  11995-3 0  9996
2 54673  87.9174 294.6963 0001907  72.5916 287.5427 13.21825242137881
ONEWEB-0611             
1 54674U 22166AJ  25279.06961237  .00000025  00000+0  28568-4 0  9991
2 54674  87.9170 294.6931 0001910  98.2321 261.9030 13.21824547137874
ONEWEB-0612             
1 54675U 22166AK  25279.08223841  .00000041  00000+0  68439-4 0  9995
2 54675  87.9180 294.6688 0001868  86.4726 273.6621 13.21825128137866
